1 42851U 17042AC  20138.91196352  .00002906  00000-0  70985-4 0  9994
2 42851  96.8963   8.8467 0011263  87.7418 272.5120 15.41528039159433
1 42851U 17042AC  20139.17161738  .00002858  00000-0  69841-4 0  9998
2 42851  96.8963   9.0920 0011263  86.9666 273.2871 15.41529332159478
1 42851U 17042AC  20139.88566354  .00003171  00000-0  77267-4 0  9999
2 42851  96.8962   9.7666 0011259  84.8122 275.4410 15.41534485159580
1 42851U 17042AC  20140.40496900  .00003178  00000-0  77416-4 0  9991
2 42851  96.8961  10.2573 0011263  83.2568 276.9961 15.41537332159665
1 42851U 17042AC  20140.59970801  .00003273  00000-0  79673-4 0  9991
2 42851  96.8961  10.4412 0011260  82.6664 277.5864 15.41538922159694
1 42851U 17042AC  20140.85935988  .00003324  00000-0  80880-4 0  9996
2 42851  96.8960  10.6865 0011261  81.9240 278.3285 15.41540700159738
1 42851U 17042AC  20141.44357547  .00003442  00000-0  83696-4 0  9990
2 42851  96.8958  11.2384 0011250  80.1579 280.0938 15.41544803159825
1 42851U 17042AC  20141.57340125  .00003222  00000-0  78452-4 0  9998
2 42851  96.8958  11.3611 0011246  79.7513 280.5003 15.41544853159841
1 42851U 17042AC  20141.83305191  .00003252  00000-0  79155-4 0  9995
2 42851  96.8957  11.6064 0011238  78.9896 281.2616 15.41546701159887
1 42851U 17042AC  20142.54709045  .00003066  00000-0  74722-4 0  9998
2 42851  96.8955  12.2809 0011217  76.8334 283.4165 15.41550606159994
1 42851U 17042AC  20142.67691555  .00003034  00000-0  73974-4 0  9991
2 42851  96.8954  12.4035 0011219  76.4242 283.8255 15.41551244160010
1 42851U 17042AC  20142.80674038  .00003064  00000-0  74672-4 0  9992
2 42851  96.8954  12.5262 0011215  76.0365 284.2129 15.41552163160039
1 42851U 17042AC  20143.06638997  .00003038  00000-0  74061-4 0  9998
2 42851  96.8953  12.7714 0011206  75.2835 284.9654 15.41553746160077
1 42851U 17042AC  20143.58568843  .00003008  00000-0  73333-4 0  9995
2 42851  96.8951  13.2620 0011189  73.6820 286.5658 15.41556787160152
1 42851U 17042AC  20144.36463367  .00003105  00000-0  75626-4 0  9992
2 42851  96.8948  13.9977 0011163  71.3789 288.8671 15.41562025160276
1 42851U 17042AC  20144.62428157  .00003014  00000-0  73461-4 0  9993
2 42851  96.8948  14.2429 0011151  70.5932 289.6521 15.41563439160318
1 42851U 17042AC  20144.94884121  .00002985  00000-0  72770-4 0  9993
2 42851  96.8947  14.5496 0011143  69.6551 290.5894 15.41565213160362
1 42851U 17042AC  20145.40322402  .00002956  00000-0  72077-4 0  9992
2 42851  96.8946  14.9787 0011131  68.2717 291.9715 15.41567681160430
1 42851U 17042AC  20145.66287091  .00002877  00000-0  70190-4 0  9990
2 42851  96.8945  15.2239 0011119  67.4764 292.7660 15.41569104160478
1 42851U 17042AC  20146.11725189  .00002990  00000-0  72876-4 0  9995
2 42851  96.8944  15.6530 0011104  66.1666 294.0745 15.41572549160540
1 42851U 17042AC  20146.76636635  .00002976  00000-0  72525-4 0  9998
2 42851  96.8943  16.2660 0011064  64.1550 296.0838 15.41576647160644
1 42851U 17042AC  20147.41547885  .00003084  00000-0  75093-4 0  9993
2 42851  96.8942  16.8791 0011030  62.1658 298.0706 15.41581199160749
1 42851U 17042AC  20147.86985680  .00002953  00000-0  71970-4 0  9995
2 42851  96.8942  17.3083 0011006  60.7935 299.4413 15.41583701160813
1 42851U 17042AC  20148.06458991  .00002969  00000-0  72345-4 0  9992
2 42851  96.8942  17.4921 0010994  60.2104 300.0236 15.41584982160840
1 42851U 17042AC  20148.58387758  .00002895  00000-0  70584-4 0  9992
2 42851  96.8942  17.9826 0010955  58.5915 301.6403 15.41587889160927
1 42851U 17042AC  20148.77860989  .00003077  00000-0  74898-4 0  9990
2 42851  96.8942  18.1665 0010939  57.9929 302.2380 15.41589812160953
1 42851U 17042AC  20149.23298547  .00002869  00000-0  69969-4 0  9998
2 42851  96.8942  18.5957 0010911  56.5463 303.6827 15.41591917161028
1 42851U 17042AC  20149.81718167  .00002676  00000-0  65365-4 0  9999
2 42851  96.8943  19.1474 0010869  54.7710 305.4554 15.41594628161116
1 42851U 17042AC  20150.33646595  .00002746  00000-0  67025-4 0  9996
2 42851  96.8943  19.6379 0010839  53.1805 307.0436 15.41597769161194
1 42851U 17042AC  20150.53119755  .00002641  00000-0  64525-4 0  9997
2 42851  96.8943  19.8218 0010824  52.5875 307.6357 15.41598404161221
1 42851U 17042AC  20150.72592882  .00002666  00000-0  65137-4 0  9991
2 42851  96.8943  20.0058 0010810  51.9876 308.2347 15.41599545161252
1 42851U 17042AC  20151.43994202  .00002888  00000-0  70391-4 0  9996
2 42851  96.8944  20.6802 0010755  49.8243 310.3945 15.41604141161367
1 42851U 17042AC  20151.56976179  .00003347  00000-0  81276-4 0  9998
2 42851  96.8944  20.8028 0010745  49.3899 310.8282 15.41606647161384
1 42851U 17042AC  20151.63467180  .00003435  00000-0  83357-4 0  9993
2 42851  96.8944  20.8641 0010735  49.2034 311.0144 15.41607343161399
1 42851U 17042AC  20152.54341156  .00003512  00000-0  85185-4 0  9995
2 42851  96.8946  21.7224 0010654  46.4209 313.7922 15.41613053161535
1 42851U 17042AC  20152.60832138  .00003498  00000-0  84850-4 0  9998
2 42851  96.8946  21.7837 0010650  46.1967 314.0160 15.41613514161540
1 42851U 17042AC  20153.19250811  .00003548  00000-0  86011-4 0  9992
2 42851  96.8946  22.3357 0010594  44.4209 315.7887 15.41618420161636
1 42851U 17042AC  20153.77669323  .00003521  00000-0  85368-4 0  9993
2 42851  96.8946  22.8875 0010537  42.5720 317.6343 15.41623093161720
1 42851U 17042AC  20153.90651190  .00003564  00000-0  86393-4 0  9997
2 42851  96.8946  23.0101 0010532  42.1366 318.0690 15.41624199161742
1 42851U 17042AC  20154.55560387  .00003911  00000-0  94594-4 0  9994
2 42851  96.8945  23.6233 0010472  40.0938 320.1081 15.41630232161842
1 42851U 17042AC  20154.81523995  .00003923  00000-0  94887-4 0  9995
2 42851  96.8944  23.8686 0010443  39.2916 320.9088 15.41632395161880
1 42851U 17042AC  20155.13978437  .00003992  00000-0  96500-4 0  9996
2 42851  96.8943  24.1752 0010405  38.2420 321.9564 15.41635522161935
1 42851U 17042AC  20155.52923695  .00003987  00000-0  96375-4 0  9999
2 42851  96.8942  24.5430 0010364  36.9362 323.2598 15.41638844161993
1 42851U 17042AC  20155.65905439  .00003886  00000-0  93990-4 0  9997
2 42851  96.8941  24.6657 0010347  36.5408 323.6545 15.41639727162013
1 42851U 17042AC  20156.30813987  .00003769  00000-0  91189-4 0  9994
2 42851  96.8939  25.2787 0010288  34.5347 325.6568 15.41644933162118
1 42851U 17042AC  20156.37304833  .00003740  00000-0  90516-4 0  9998
2 42851  96.8939  25.3400 0010282  34.3203 325.8708 15.41645376162125
1 42851U 17042AC  20156.82740672  .00003643  00000-0  88188-4 0  9997
2 42851  96.8938  25.7692 0010228  32.8899 327.2984 15.41649074162193
1 42851U 17042AC  20157.54139714  .00002983  00000-0  72545-4 0  9992
2 42851  96.8935  26.4435 0010155  30.4287 329.7548 15.41652826162302
1 42851U 17042AC  20157.67121356  .00003137  00000-0  76196-4 0  9997
2 42851  96.8934  26.5661 0010154  29.9768 330.2059 15.41653579162321
1 42851U 17042AC  20158.38520112  .00003221  00000-0  78171-4 0  9998
2 42851  96.8931  27.2404 0010081  27.6415 332.5367 15.41658855162435
1 42851U 17042AC  20158.57992476  .00003076  00000-0  74743-4 0  9994
2 42851  96.8931  27.4243 0010057  26.9784 333.1985 15.41659802162461
1 42851U 17042AC  20159.42372595  .00002670  00000-0  65110-4 0  9990
2 42851  96.8929  28.2212 0009958  24.1572 336.0141 15.41663430162598
1 42851U 17042AC  20159.68335629  .00002606  00000-0  63589-4 0  9992
2 42851  96.8928  28.4663 0009925  23.3074 336.8622 15.41665170162631
1 42851U 17042AC  20160.59206097  .00003030  00000-0  73621-4 0  9990
2 42851  96.8926  29.3245 0009809  20.3238 339.8398 15.41671553162775
1 42851U 17042AC  20161.17622626  .00003048  00000-0  74040-4 0  9990
2 42851  96.8925  29.8761 0009732  18.3767 341.7831 15.41675123162862
1 42851U 17042AC  20161.37094781  .00003025  00000-0  73494-4 0  9994
2 42851  96.8925  30.0600 0009704  17.7019 342.4566 15.41676199162890
1 42851U 17042AC  20161.89020468  .00002956  00000-0  71849-4 0  9996
2 42851  96.8924  30.5503 0009651  15.9232 344.2318 15.41679100162973
1 42851U 17042AC  20162.21473921  .00003287  00000-0  79682-4 0  9990
2 42851  96.8924  30.8568 0009612  14.8215 345.3313 15.41682314163028
1 42851U 17042AC  20162.86380782  .00003007  00000-0  73060-4 0  9997
2 42851  96.8925  31.4698 0009540  12.6112 347.5373 15.41685551163129
1 42851U 17042AC  20163.18834127  .00003057  00000-0  74232-4 0  9997
2 42851  96.8925  31.7763 0009493  11.5309 348.6155 15.41687838163173
1 42851U 17042AC  20164.09703289  .00003044  00000-0  73908-4 0  9997
2 42851  96.8926  32.6345 0009372   8.3091 351.8311 15.41693494163319
1 42851U 17042AC  20164.35665852  .00002962  00000-0  71955-4 0  9997
2 42851  96.8926  32.8797 0009342   7.3806 352.7578 15.41694748163354
1 42851U 17042AC  20164.87590891  .00003031  00000-0  73583-4 0  9991
2 42851  96.8927  33.3702 0009272   5.6084 354.5266 15.41698169163432
1 42851U 17042AC  20165.20043999  .00002850  00000-0  69305-4 0  9996
2 42851  96.8927  33.6767 0009228   4.4723 355.6606 15.41699592163480
1 42851U 17042AC  20165.58987679  .00002728  00000-0  66420-4 0  9998
2 42851  96.8927  34.0444 0009170   3.1172 357.0132 15.41701565163548
1 42851U 17042AC  20165.78459503  .00002715  00000-0  66103-4 0  9994
2 42851  96.8927  34.2283 0009143   2.4244 357.7047 15.41702591163578
1 42851U 17042AC  20166.10912492  .00002768  00000-0  67363-4 0  9999
2 42851  96.8927  34.5348 0009095   1.2576 358.8694 15.41704702163626
1 42851U 17042AC  20166.36874891  .00002574  00000-0  62768-4 0  9996
2 42851  96.8927  34.7800 0009060   0.3237 359.8016 15.41705351163661
1 42851U 17042AC  20166.88799614  .00002460  00000-0  60047-4 0  9994
2 42851  96.8928  35.2705 0009001 358.4188   1.7030 15.41707679163742
1 42851U 17042AC  20167.53705418  .00002327  00000-0  56906-4 0  9997
2 42851  96.8927  35.8835 0008911 356.0618   4.0558 15.41710256163849
1 42851U 17042AC  20167.86158275  .00002334  00000-0  57077-4 0  9994
2 42851  96.8928  36.1901 0008870 354.9110   5.2047 15.41711780163890
